[{"OBJECT_NAME":"STARLINK-3567","OBJECT_ID":"2022-022V","EPOCH":"2026-03-09T05:12:26.354016","MEAN_MOTION":15.08840488,"ECCENTRICITY":0.00017614,"INCLINATION":53.2206,"RA_OF_ASC_NODE":11.2434,"ARG_OF_PERICENTER":84.8005,"MEAN_ANOMALY":275.3188,"EPHEMERIS_TYPE":0,"CLASSIFICATION_TYPE":"U","NORAD_CAT_ID":51871,"ELEMENT_SET_NO":999,"REV_AT_EPOCH":22315,"BSTAR":-5.4139838e-5,"MEAN_MOTION_DOT":-1.15e-5,"MEAN_MOTION_DDOT":0},{"OBJECT_NAME":"CZ-6A DEB","OBJECT_ID":"2022-151KB","EPOCH":"2026-03-09T19:20:41.637408","MEAN_MOTION":14.94061736,"ECCENTRICITY":0.0071589,"INCLINATION":98.7004,"RA_OF_ASC_NODE":166.2159,"ARG_OF_PERICENTER":166.3306,"MEAN_ANOMALY":193.9872,"EPHEMERIS_TYPE":0,"CLASSIFICATION_TYPE":"U","NORAD_CAT_ID":54523,"ELEMENT_SET_NO":999,"REV_AT_EPOCH":17710,"BSTAR":0.0044467837,"MEAN_MOTION_DOT":0.00050189,"MEAN_MOTION_DDOT":0}]
